{"type": "FeatureCollection", "features": [ {"type": "Feature", "properties": {"norad_id": 51444, "name": "CSG-2", "group": "resource", "lat": -0.4010522004668182, "lon": -15.201940916814442, "alt_km": 625.7652080264606, "timestamp": "2025-12-09T11:33:54.458228+00:00", "meta": {"OBJECT_NAME": "CSG-2", "OBJECT_ID": "2022-008A", "EPOCH": "2025-12-09T04:16:24.301056", "MEAN_MOTION": 14.82155809, "ECCENTRICITY": 0.0001503, "INCLINATION": 97.8801, "RA_OF_ASC_NODE": 164.5545, "ARG_OF_PERICENTER": 82.4706, "MEAN_ANOMALY": 277.6678, "EPHEMERIS_TYPE": 0, "CLASSIFICATION_TYPE": "U", "NORAD_CAT_ID": 51444, "ELEMENT_SET_NO": 999, "REV_AT_EPOCH": 20844, "BSTAR": 2.9971e-05, "MEAN_MOTION_DOT": 1.86e-06, "MEAN_MOTION_DDOT": 0}, "tle": {"line1": "1 51444U 22008A   25343.17805904  .00000186  00000+0  29971-4 0  9997", "line2": "2 51444  97.8801 164.5545 0001503  82.4706 277.6678 14.82155809208443"}}, "geometry": {"type": "Point", "coordinates": [-15.201940916814442, -0.4010522004668182]}}, {"type": "Feature", "properties": {"norad_id": 52912, "name": "GAOFEN-12 03", "group": "resource", "lat": 52.421381218585864, "lon": 61.23175251298961, "alt_km": 624.9603686253722, "timestamp": "2025-12-09T11:33:54.458238+00:00", "meta": {"OBJECT_NAME": "GAOFEN-12 03", "OBJECT_ID": "2022-069A", "EPOCH": "2025-12-09T04:30:07.186752", "MEAN_MOTION": 14.79596728, "ECCENTRICITY": 0.0002299, "INCLINATION": 97.8482, "RA_OF_ASC_NODE": 230.6184, "ARG_OF_PERICENTER": 65.7357, "MEAN_ANOMALY": 294.4094, "EPHEMERIS_TYPE": 0, "CLASSIFICATION_TYPE": "U", "NORAD_CAT_ID": 52912, "ELEMENT_SET_NO": 999, "REV_AT_EPOCH": 18651, "BSTAR": 0.0002853, "MEAN_MOTION_DOT": 2.087e-05, "MEAN_MOTION_DDOT": 0}, "tle": {"line1": "1 52912U 22069A   25343.18758318  .00002087  00000+0  28530-3 0  9993", "line2": "2 52912  97.8482 230.6184 0002299  65.7357 294.4094 14.79596728186519"}}, "geometry": {"type": "Point", "coordinates": [61.23175251298961, 52.421381218585864]}}, {"type": "Feature", "properties": {"norad_id": 54754, "name": "SWOT", "group": "resource", "lat": -47.31965286344446, "lon": -82.40278391087575, "alt_km": 900.0535134976571, "timestamp": "2025-12-09T11:33:54.458248+00:00", "meta": {"OBJECT_NAME": "SWOT", "OBJECT_ID": "2022-173A", "EPOCH": "2025-12-09T03:13:24.212064", "MEAN_MOTION": 14.00173842, "ECCENTRICITY": 3.43e-05, "INCLINATION": 77.6103, "RA_OF_ASC_NODE": 291.8568, "ARG_OF_PERICENTER": 122.4431, "MEAN_ANOMALY": 237.6753, "EPHEMERIS_TYPE": 0, "CLASSIFICATION_TYPE": "U", "NORAD_CAT_ID": 54754, "ELEMENT_SET_NO": 999, "REV_AT_EPOCH": 15255, "BSTAR": 7.3773e-05, "MEAN_MOTION_DOT": 1.06e-06, "MEAN_MOTION_DDOT": 0}, "tle": {"line1": "1 54754U 22173A   25343.13430801  .00000106  00000+0  73773-4 0  9994", "line2": "2 54754  77.6103 291.8568 0000343 122.4431 237.6753 14.00173842152558"}}, "geometry": {"type": "Point", "coordinates": [-82.40278391087575, -47.31965286344446]}}, {"type": "Feature", "properties": {"norad_id": 57654, "name": "GAOFEN-12 04", "group": "resource", "lat": -63.628864140112576, "lon": -84.42157023416777, "alt_km": 638.2579461797313, "timestamp": "2025-12-09T11:33:54.458258+00:00", "meta": {"OBJECT_NAME": "GAOFEN-12 04", "OBJECT_ID": "2023-123A", "EPOCH": "2025-12-09T05:21:56.104992", "MEAN_MOTION": 14.79683247, "ECCENTRICITY": 0.0001397, "INCLINATION": 97.9118, "RA_OF_ASC_NODE": 259.0341, "ARG_OF_PERICENTER": 74.2081, "MEAN_ANOMALY": 285.9285, "EPHEMERIS_TYPE": 0, "CLASSIFICATION_TYPE": "U", "NORAD_CAT_ID": 57654, "ELEMENT_SET_NO": 999, "REV_AT_EPOCH": 12453, "BSTAR": 0.00026249, "MEAN_MOTION_DOT": 1.919e-05, "MEAN_MOTION_DDOT": 0}, "tle": {"line1": "1 57654U 23123A   25343.22356603  .00001919  00000+0  26249-3 0  9997", "line2": "2 57654  97.9118 259.0341 0001397  74.2081 285.9285 14.79683247124535"}}, "geometry": {"type": "Point", "coordinates": [-84.42157023416777, -63.628864140112576]}}, {"type": "Feature", "properties": {"norad_id": 59065, "name": "PARS 1", "group": "resource", "lat": -24.972912946244147, "lon": -42.153529649699934, "alt_km": 451.7622340915241, "timestamp": "2025-12-09T11:33:54.458267+00:00", "meta": {"OBJECT_NAME": "PARS 1", "OBJECT_ID": "2024-039Q", "EPOCH": "2025-12-09T03:52:52.804128", "MEAN_MOTION": 15.40849655, "ECCENTRICITY": 0.0012692, "INCLINATION": 97.4637, "RA_OF_ASC_NODE": 314.019, "ARG_OF_PERICENTER": 82.8302, "MEAN_ANOMALY": 277.4387, "EPHEMERIS_TYPE": 0, "CLASSIFICATION_TYPE": "U", "NORAD_CAT_ID": 59065, "ELEMENT_SET_NO": 999, "REV_AT_EPOCH": 9933, "BSTAR": 0.00034664, "MEAN_MOTION_DOT": 0.00014183, "MEAN_MOTION_DDOT": 0}, "tle": {"line1": "1 59065U 24039Q   25343.16172227  .00014183  00000+0  34664-3 0  9990", "line2": "2 59065  97.4637 314.0190 0012692  82.8302 277.4387 15.40849655 99333"}}, "geometry": {"type": "Point", "coordinates": [-42.153529649699934, -24.972912946244147]}}, {"type": "Feature", "properties": {"norad_id": 59371, "name": "RESURS-P 4", "group": "resource", "lat": -40.5534203441373, "lon": 103.62093316689514, "alt_km": 477.52253581370405, "timestamp": "2025-12-09T11:33:54.458277+00:00", "meta": {"OBJECT_NAME": "RESURS-P 4", "OBJECT_ID": "2024-061A", "EPOCH": "2025-12-09T04:20:02.021280", "MEAN_MOTION": 15.32040693, "ECCENTRICITY": 0.0001766, "INCLINATION": 97.2543, "RA_OF_ASC_NODE": 289.5835, "ARG_OF_PERICENTER": 52.9899, "MEAN_ANOMALY": 307.1504, "EPHEMERIS_TYPE": 0, "CLASSIFICATION_TYPE": "U", "NORAD_CAT_ID": 59371, "ELEMENT_SET_NO": 999, "REV_AT_EPOCH": 9466, "BSTAR": 0.00016518, "MEAN_MOTION_DOT": 5.034e-05, "MEAN_MOTION_DDOT": 0}, "tle": {"line1": "1 59371U 24061A   25343.18057895  .00005034  00000+0  16518-3 0  9993", "line2": "2 59371  97.2543 289.5835 0001766  52.9899 307.1504 15.32040693 94667"}}, "geometry": {"type": "Point", "coordinates": [103.62093316689514, -40.5534203441373]}}, {"type": "Feature", "properties": {"norad_id": 59625, "name": "LEGION 1", "group": "resource", "lat": -82.33904985409131, "lon": 158.96630142841596, "alt_km": 522.6855448189408, "timestamp": "2025-12-09T11:33:54.458287+00:00", "meta": {"OBJECT_NAME": "LEGION 1", "OBJECT_ID": "2024-081A", "EPOCH": "2025-12-09T04:02:57.280128", "MEAN_MOTION": 15.16423123, "ECCENTRICITY": 0.0004252, "INCLINATION": 97.5212, "RA_OF_ASC_NODE": 57.8376, "ARG_OF_PERICENTER": 332.6773, "MEAN_ANOMALY": 27.4236, "EPHEMERIS_TYPE": 0, "CLASSIFICATION_TYPE": "U", "NORAD_CAT_ID": 59625, "ELEMENT_SET_NO": 999, "REV_AT_EPOCH": 8873, "BSTAR": 0.0003404, "MEAN_MOTION_DOT": 6.552e-05, "MEAN_MOTION_DDOT": 0}, "tle": {"line1": "1 59625U 24081A   25343.16871852  .00006552  00000+0  34040-3 0  9998", "line2": "2 59625  97.5212  57.8376 0004252 332.6773  27.4236 15.16423123 88733"}}, "geometry": {"type": "Point", "coordinates": [158.96630142841596, -82.33904985409131]}}, {"type": "Feature", "properties": {"norad_id": 59626, "name": "LEGION 2", "group": "resource", "lat": 82.27888521694896, "lon": -18.806686290910744, "alt_km": 512.2509155153484, "timestamp": "2025-12-09T11:33:54.458297+00:00", "meta": {"OBJECT_NAME": "LEGION 2", "OBJECT_ID": "2024-081B", "EPOCH": "2025-12-09T04:50:33.523296", "MEAN_MOTION": 15.16436536, "ECCENTRICITY": 0.000584, "INCLINATION": 97.5216, "RA_OF_ASC_NODE": 57.9574, "ARG_OF_PERICENTER": 308.8267, "MEAN_ANOMALY": 51.2444, "EPHEMERIS_TYPE": 0, "CLASSIFICATION_TYPE": "U", "NORAD_CAT_ID": 59626, "ELEMENT_SET_NO": 999, "REV_AT_EPOCH": 8874, "BSTAR": 0.00031827, "MEAN_MOTION_DOT": 6.125e-05, "MEAN_MOTION_DDOT": 0}, "tle": {"line1": "1 59626U 24081B   25343.20177689  .00006125  00000+0  31827-3 0  9997", "line2": "2 59626  97.5216  57.9574 0005840 308.8267  51.2444 15.16436536 88745"}}, "geometry": {"type": "Point", "coordinates": [-18.806686290910744, 82.27888521694896]}}, {"type": "Feature", "properties": {"norad_id": 60182, "name": "ALOS-4 (DAICHI-4)", "group": "resource", "lat": 1.3131582155677388, "lon": -101.44159556195191, "alt_km": 633.6087080424804, "timestamp": "2025-12-09T11:33:54.458307+00:00", "meta": {"OBJECT_NAME": "ALOS-4 (DAICHI-4)", "OBJECT_ID": "2024-123A", "EPOCH": "2025-12-09T05:53:28.207104", "MEAN_MOTION": 14.79467572, "ECCENTRICITY": 0.0001434, "INCLINATION": 97.9226, "RA_OF_ASC_NODE": 78.1425, "ARG_OF_PERICENTER": 103.0768, "MEAN_ANOMALY": 257.0603, "EPHEMERIS_TYPE": 0, "CLASSIFICATION_TYPE": "U", "NORAD_CAT_ID": 60182, "ELEMENT_SET_NO": 999, "REV_AT_EPOCH": 7779, "BSTAR": 0.00038269, "MEAN_MOTION_DOT": 2.807e-05, "MEAN_MOTION_DDOT": 0}, "tle": {"line1": "1 60182U 24123A   25343.24546536  .00002807  00000+0  38269-3 0  9998", "line2": "2 60182  97.9226  78.1425 0001434 103.0768 257.0603 14.79467572 77793"}}, "geometry": {"type": "Point", "coordinates": [-101.44159556195191, 1.3131582155677388]}}, {"type": "Feature", "properties": {"norad_id": 60452, "name": "LEGION 3", "group": "resource", "lat": 39.74354165809737, "lon": 91.29118145433905, "alt_km": 508.65471529681327, "timestamp": "2025-12-09T11:33:54.458317+00:00", "meta": {"OBJECT_NAME": "LEGION 3", "OBJECT_ID": "2024-146A", "EPOCH": "2025-12-09T03:08:59.086752", "MEAN_MOTION": 15.1570146, "ECCENTRICITY": 0.0014466, "INCLINATION": 45.0026, "RA_OF_ASC_NODE": 329.4766, "ARG_OF_PERICENTER": 179.0528, "MEAN_ANOMALY": 181.038, "EPHEMERIS_TYPE": 0, "CLASSIFICATION_TYPE": "U", "NORAD_CAT_ID": 60452, "ELEMENT_SET_NO": 999, "REV_AT_EPOCH": 7318, "BSTAR": 0.00035187, "MEAN_MOTION_DOT": 6.572e-05, "MEAN_MOTION_DDOT": 0}, "tle": {"line1": "1 60452U 24146A   25343.13123943  .00006572  00000+0  35187-3 0  9993", "line2": "2 60452  45.0026 329.4766 0014466 179.0528 181.0380 15.15701460 73186"}}, "geometry": {"type": "Point", "coordinates": [91.29118145433905, 39.74354165809737]}}]}